[{"OBJECT_NAME":"STARLINK-11115 [DTC]","OBJECT_ID":"2024-133E","EPOCH":"2026-03-09T22:34:31.029888","MEAN_MOTION":15.69698901,"ECCENTRICITY":0.00012544,"INCLINATION":53.1589,"RA_OF_ASC_NODE":144.978,"ARG_OF_PERICENTER":82.1011,"MEAN_ANOMALY":278.0149,"EPHEMERIS_TYPE":0,"CLASSIFICATION_TYPE":"U","NORAD_CAT_ID":60305,"ELEMENT_SET_NO":999,"REV_AT_EPOCH":9377,"BSTAR":-2.615027e-6,"MEAN_MOTION_DOT":-9.05e-6,"MEAN_MOTION_DDOT":0},{"OBJECT_NAME":"TROOP-F2","OBJECT_ID":"2024-149CT","EPOCH":"2026-03-09T19:32:55.399776","MEAN_MOTION":15.71081872,"ECCENTRICITY":0.00034643,"INCLINATION":97.3621,"RA_OF_ASC_NODE":159.7382,"ARG_OF_PERICENTER":230.7595,"MEAN_ANOMALY":129.3361,"EPHEMERIS_TYPE":0,"CLASSIFICATION_TYPE":"U","NORAD_CAT_ID":60557,"ELEMENT_SET_NO":999,"REV_AT_EPOCH":8756,"BSTAR":0.001093104,"MEAN_MOTION_DOT":0.00139132,"MEAN_MOTION_DDOT":0}]
